NORAD_CAT_ID,OBJECT_NAME,OBJECT_TYPE,EPOCH,MEAN_MOTION,ECCENTRICITY,INCLINATION,RA_OF_ASC_NODE,ARG_OF_PERICENTER,MEAN_ANOMALY,BSTAR,MEAN_MOTION_DOT,MEAN_MOTION_DDOT,TLE_LINE0,TLE_LINE1,TLE_LINE2,SEMIMAJOR_AXIS,PERIOD,APOGEE,PERIGEE,DECAYED
53590.0,STARLINK-4689,PAYLOAD,2023-01-06 08:40:09,15.08829899,0.000181,53.2187,44.2566,37.6561,322.4558,-0.00046631,-7.7e-05,0.0,0 STARLINK-4689,1 53590U 22104C   23006.36121935 -.00007700  00000-0 -46631-3 0  9991,2 53590  53.2187  44.2566 0001810  37.6561 322.4558 15.08829899 20050,6917.911,95.438,541.028,538.524,0.0
53590.0,STARLINK-4689,PAYLOAD,2023-01-06 11:50:55,15.088280599999996,0.0001706999999999,53.2194,43.6614,38.2223,321.889,-0.00038136,-6.35e-05,0.0,0 STARLINK-4689,1 53590U 22104C   23006.49370301 -.00006350  00000-0 -38136-3 0  9999,2 53590  53.2194  43.6614 0001707  38.2223 321.8890 15.08828060 21111,6917.917,95.438,540.9630000000002,538.601,0.0
53590.0,STARLINK-4689,PAYLOAD,2023-01-07 02:09:24,15.08842157,0.0001748,53.2179,40.9871,42.9341,317.1788,9.8089e-05,1.273e-05,0.0,0 STARLINK-4689,1 53590U 22104C   23007.08986373  .00001273  00000-0  98089-4 0  9998,2 53590  53.2179  40.9871 0001748  42.9341 317.1788 15.08842157 20168,6917.874,95.437,540.948,538.53,0.0
53590.0,STARLINK-4689,PAYLOAD,2023-01-07 11:41:42,15.08846694,0.0001914,53.2175,39.2038,43.3528,316.7614,0.00012173,1.65e-05,0.0,0 STARLINK-4689,1 53590U 22104C   23007.48730293  .00001650  00000-0  12173-3 0  9998,2 53590  53.2175  39.2038 0001914  43.3528 316.7614 15.08846694 21262,6917.86,95.437,541.049,538.401,0.0
53590.0,STARLINK-4689,PAYLOAD,2023-01-08 02:00:12,15.08827071,0.000179,53.2168,36.5241,55.2287,304.8873,0.00021274,3.098e-05,0.0,0 STARLINK-4689,1 53590U 22104C   23008.08347569  .00003098  00000-0  21274-3 0  9995,2 53590  53.2168  36.5241 0001790  55.2287 304.8873 15.08827071 20314,6917.92,95.438,541.023,538.547,0.0
53590.0,STARLINK-4689,PAYLOAD,2023-01-09 11:23:18,15.08834607,0.0001889,53.2171,30.2819,53.8462,306.2705,-5.2191e-05,-1.119e-05,0.0,0 STARLINK-4689,1 53590U 22104C   23009.47451979 -.00001119  00000-0 -52191-4 0  9997,2 53590  53.2171  30.2819 0001889  53.8462 306.2705 15.08834607 20524,6917.897,95.438,541.069,538.455,0.0
53590.0,STARLINK-4689,PAYLOAD,2023-01-09 17:44:51,15.08827533,0.0001954,53.2167,29.0921,55.8442,304.2735,-7.4101e-06,-4.06e-06,0.0,0 STARLINK-4689,1 53590U 22104C   23009.73948506 -.00000406  00000-0 -74101-5 0  9997,2 53590  53.2167  29.0921 0001954  55.8442 304.2735 15.08827533 21603,6917.9180000000015,95.438,541.135,538.432,0.0
53590.0,STARLINK-4689,PAYLOAD,2023-01-10 11:14:04,15.08857448,0.00018,53.2174,25.8211,65.5032,294.6148,-0.00033042,-5.546e-05,0.0,0 STARLINK-4689,1 53590U 22104C   23010.46811115 -.00005546  00000-0 -33042-3 0  9991,2 53590  53.2174  25.8211 0001800  65.5032 294.6148 15.08857448 20674,6917.826999999998,95.436,540.937,538.447,0.0
53590.0,STARLINK-4689,PAYLOAD,2023-01-10 17:35:38,15.08834845,0.0001730999999999,53.2163,24.6308,56.1778,303.9379,0.00018782,2.702e-05,0.0,0 STARLINK-4689,1 53590U 22104C   23010.73308643  .00002702  00000-0  18782-3 0  9991,2 53590  53.2163  24.6308 0001731  56.1778 303.9379 15.08834845 20713,6917.896,95.438,540.9590000000002,538.564,0.0
53590.0,STARLINK-4689,PAYLOAD,2023-01-11 07:54:06,15.08837972,0.0001761,53.2168,21.955,58.1937,301.9227,0.00017885,2.559e-05,0.0,0 STARLINK-4689,1 53590U 22104C   23011.32924737  .00002559  00000-0  17885-3 0  9998,2 53590  53.2168  21.9550 0001761  58.1937 301.9227 15.08837972 21848,6917.887,95.438,540.97,538.533,0.0
53590.0,STARLINK-4689,PAYLOAD,2023-01-11 17:26:25,15.088396,0.0001864,53.2179,20.1707,69.1457,290.9735,0.00017456,2.491e-05,0.0,0 STARLINK-4689,1 53590U 22104C   23011.72668718  .00002491  00000-0  17456-3 0  9995,2 53590  53.2179  20.1707 0001864  69.1457 290.9735 15.08839600 21906,6917.882,95.438,541.036,538.457,0.0
53590.0,STARLINK-4689,PAYLOAD,2023-01-12 01:23:21,15.08831339,0.000162,53.218,18.6841,70.1941,289.9226,0.00022517,3.297e-05,0.0,0 STARLINK-4689,1 53590U 22104C   23012.05789236  .00003297  00000-0  22517-3 0  9990,2 53590  53.2180  18.6841 0001620  70.1941 289.9226 15.08831339 20913,6917.906999999998,95.438,540.893,538.651,0.0
53590.0,STARLINK-4689,PAYLOAD,2023-01-12 17:17:12,15.08840033,0.0001692,53.218,15.7099,75.7924,284.3256,3.4248e-05,2.57e-06,0.0,0 STARLINK-4689,1 53590U 22104C   23012.72028627  .00000257  00000-0  34248-4 0  9992,2 53590  53.2180  15.7099 0001692  75.7924 284.3256 15.08840033 21012,6917.88,95.438,540.9159999999998,538.575,0.0
53590.0,STARLINK-4689,PAYLOAD,2023-01-12 23:38:45,15.08831631,0.0001626,53.2172,14.521,75.8227,284.2946,-4.5504e-05,-1.012e-05,0.0,0 STARLINK-4689,1 53590U 22104C   23012.98525210 -.00001012  00000-0 -45504-4 0  9999,2 53590  53.2172  14.5210 0001626  75.8227 284.2946 15.08831631 21052,6917.906,95.438,540.896,538.646,0.0
53590.0,STARLINK-4689,PAYLOAD,2023-01-13 07:35:40,15.08845218,0.0001515,53.2174,13.0328,86.6611,273.4555,4.7389e-05,4.66e-06,0.0,0 STARLINK-4689,1 53590U 22104C   23013.31644517  .00000466  00000-0  47389-4 0  9992,2 53590  53.2174  13.0328 0001515  86.6611 273.4555 15.08845218 21100,6917.8640000000005,95.437,540.7769999999999,538.681,0.0
53590.0,STARLINK-4689,PAYLOAD,2023-01-13 17:07:59,15.08844538,0.0001443999999999,53.2173,11.2526,86.5191,273.5966,9.4891e-05,1.223e-05,0.0,0 STARLINK-4689,1 53590U 22104C   23013.71388613  .00001223  00000-0  94891-4 0  9990,2 53590  53.2173  11.2526 0001444  86.5191 273.5966 15.08844538 22205,6917.866999999999,95.437,540.73,538.7330000000001,0.0
53590.0,STARLINK-4689,PAYLOAD,2023-01-14 18:34:10,15.08841829,0.0001449,53.218,6.4910000000000005,98.7839,261.3317,0.00013986,1.939e-05,0.0,0 STARLINK-4689,1 53590U 22104C   23014.77372741  .00001939  00000-0  13986-3 0  9991,2 53590  53.2180   6.4910 0001449  98.7839 261.3317 15.08841829 21322,6917.875,95.437,540.742,538.737,0.0
53590.0,STARLINK-4689,PAYLOAD,2023-01-15 05:41:52,15.08837707,0.0001453,53.2176,4.4087,99.2291,260.8866,0.00012183,1.651e-05,0.0,0 STARLINK-4689,1 53590U 22104C   23015.23741051  .00001651  00000-0  12183-3 0  9996,2 53590  53.2176   4.4087 0001453  99.2291 260.8866 15.08837707 22439,6917.887,95.438,540.758,538.747,0.0
53590.0,STARLINK-4689,PAYLOAD,2023-01-16 05:32:37,15.08874941,0.0001302,53.2183,359.9502,92.3253,267.7888,0.00067895,0.00010544,0.0,0 STARLINK-4689,1 53590U 22104C   23016.23099243  .00010544  00000-0  67895-3 0  9997,2 53590  53.2183 359.9502 0001302  92.3253 267.7888 15.08874941 21544,6917.774,95.435,540.539,538.738,0.0
53590.0,STARLINK-4689,PAYLOAD,2023-01-16 18:15:43,15.08853374,0.0001028,53.2179,357.5705,97.7802,262.3306,0.00023075,3.388e-05,0.0,0 STARLINK-4689,1 53590U 22104C   23016.76091566  .00003388  00000-0  23075-3 0  9995,2 53590  53.2179 357.5705 0001028  97.7802 262.3306 15.08853374 21624,6917.84,95.437,540.4159999999999,538.993,0.0
53590.0,STARLINK-4689,PAYLOAD,2023-01-17 08:34:10,15.08856048,0.0001601,53.2171,354.8962,102.4868,257.6303,0.00012984,1.7800000000000002e-05,0.0,0 STARLINK-4689,1 53590U 22104C   23017.35706943  .00001780  00000-0  12984-3 0  9994,2 53590  53.2171 354.8962 0001601 102.4868 257.6303 15.08856048 22754,6917.831,95.437,540.804,538.589,0.0
53590.0,STARLINK-4689,PAYLOAD,2023-01-17 21:17:16,15.0882565,0.0001758,53.2181,352.5206,101.2443,258.8747,-0.00038148,-6.352e-05,0.0,0 STARLINK-4689,1 53590U 22104C   23017.88700015 -.00006352  00000-0 -38148-3 0  9998,2 53590  53.2181 352.5206 0001758 101.2443 258.8747 15.08825650 22839,6917.924,95.438,541.005,538.573,0.0
53590.0,STARLINK-4689,PAYLOAD,2023-01-17 22:52:40,15.08812385,0.0001521999999999,53.2176,352.2197,99.7685,260.3479,-0.00058736,-9.617e-05,0.0,0 STARLINK-4689,1 53590U 22104C   23017.95324474 -.00009617  00000-0 -58736-3 0  9999,2 53590  53.2176 352.2197 0001522  99.7685 260.3479 15.08812385 21804,6917.965,95.439,540.883,538.7769999999999,0.0
53590.0,STARLINK-4689,PAYLOAD,2023-01-18 05:14:13,15.08824614,0.0001441999999999,53.218,351.0313,94.0831,266.0326,0.00045969,7.033e-05,0.0,0 STARLINK-4689,1 53590U 22104C   23018.21820855  .00007033  00000-0  45969-3 0  9995,2 53590  53.2180 351.0313 0001442  94.0831 266.0326 15.08824614 22889,6917.927,95.439,540.79,538.795,0.0
53590.0,STARLINK-4689,PAYLOAD,2023-01-18 14:46:32,15.08840072,0.0001374,53.2181,349.2469,93.977,266.1379,0.0015179,0.00023952,0.0,0 STARLINK-4689,1 53590U 22104C   23018.61565307  .00023952  00000-0  15179-2 0  9994,2 53590  53.2181 349.2469 0001374  93.9770 266.1379 15.08840072 21902,6917.88,95.438,540.696,538.795,0.0
53590.0,STARLINK-4689,PAYLOAD,2023-01-19 06:40:23,15.08881163,0.0001318,53.2178,346.273,96.1628,263.9514,0.0020259,0.00032138,0.0,0 STARLINK-4689,1 53590U 22104C   23019.27804473  .00032138  00000-0  20259-2 0  9998,2 53590  53.2178 346.2730 0001318  96.1628 263.9514 15.08881163 23040,6917.755,95.435,540.531,538.7080000000001,0.0
53590.0,STARLINK-4689,PAYLOAD,2023-01-19 22:34:15,15.08844498,0.0001027,53.2176,343.2994,84.0394,276.0715,0.001149,0.00018048,0.0,0 STARLINK-4689,1 53590U 22104C   23019.94045156  .00018048  00000-0  11490-2 0  9998,2 53590  53.2176 343.2994 0001027  84.0394 276.0715 15.08844498 22104,6917.866999999999,95.437,540.442,539.021,0.0
53590.0,STARLINK-4689,PAYLOAD,2023-01-20 06:31:11,15.08830628,0.0001328,53.2177,341.8123,69.257,290.8564,0.0017214,0.00027207,0.0,0 STARLINK-4689,1 53590U 22104C   23020.27165751  .00027207  00000-0  17214-2 0  9997,2 53590  53.2177 341.8123 0001328  69.2570 290.8564 15.08830628 22159,6917.909000000001,95.438,540.693,538.855,0.0
53590.0,STARLINK-4689,PAYLOAD,2023-01-20 14:28:07,15.08834524,0.0001252999999999,53.2176,340.3255,78.8817,281.2316,0.0013659,0.00021514,0.0,0 STARLINK-4689,1 53590U 22104C   23020.60286127  .00021514  00000-0  13659-2 0  9999,2 53590  53.2176 340.3255 0001253  78.8817 281.2316 15.08834524 22209,6917.897,95.438,540.629,538.895,0.0
